IRIDIUM 116             
1 43072U 17083C   23281.52540694  .00000013  00000+0 -25817-5 0  9998
2 43072  86.4030  12.6974 0002191 100.0753 260.0690 14.34217015303329
IRIDIUM 130             
1 43073U 17083D   23281.49369123  .00000683  00000+0  23694-3 0  9992
2 43073  86.4038  12.8902 0002150  91.8675 268.2767 14.34220133303269
IRIDIUM 151             
1 43074U 17083E   23281.53808666  .00000634  00000+0  21930-3 0  9995
2 43074  86.4031  12.7274 0002406  95.1496 264.9975 14.34222095303292
IRIDIUM 134             
1 43075U 17083F   23281.50637848  .00000043  00000+0  83358-5 0  9993
2 43075  86.4032  12.7350 0001959  94.6202 265.5217 14.34216342303250
IRIDIUM 137             
1 43076U 17083G   23281.51906034  .00000560  00000+0  19299-3 0  9996
2 43076  86.4035  12.8037 0002197 101.4737 258.6705 14.34213784303322
IRIDIUM 141             
1 43077U 17083H   23281.51272372  .00000745  00000+0  25893-3 0  9990
2 43077  86.4029  12.6920 0002349  90.1037 270.0428 14.34221585303329
IRIDIUM 153             
1 43078U 17083J   23281.60443637  .00000547  00000+0  18822-3 0  9999
2 43078  86.4005 341.1293 0002260  84.3494 275.7960 14.34218403304443
IRIDIUM 131             
1 43079U 17083K   23281.50003409  .00000032  00000+0  43629-5 0  9992
2 43079  86.4036  12.8176 0002039  90.3338 269.8092 14.34218082303259
